0 CZ-4B R/B
1 37181U 10051C   13283.11899898  .00000909  00000-0  83032-4 0  9793
2 37181 097.5438 287.5816 0120402 226.9386 174.8378 14.92202537163856
0 CZ-4B R/B
1 37181U 10051C   13284.12487642  .00001320  00000-0  11806-3 0  9804
2 37181 097.5436 288.5455 0120496 223.5549 178.3686 14.92202429164000
0 CZ-4B R/B
1 37181U 10051C   13285.13093405  .00001308  00000-0  11703-3 0  9819
2 37181 097.5435 289.5095 0120592 220.1657 182.8779 14.92202677164154
0 CZ-4B R/B
1 37181U 10051C   13286.13764146  .00001673  00000-0  14804-3 0  9828
2 37181 097.5435 290.4740 0120671 216.7784 190.8764 14.92204089164301
0 CZ-4B R/B
1 37181U 10051C   13287.14248116  .00002078  00000-0  18250-3 0  9834
2 37181 097.5434 291.4366 0120742 213.4133 188.8300 14.92205288164457
0 CZ-4B R/B
1 37181U 10051C   13288.50468153  .00002807  00000-0  24448-3 0  9847
2 37181 097.5434 292.7415 0120828 208.8251 306.5439 14.92214299164656
0 CZ-4B R/B
1 37181U 10051C   13289.51151810  .00002051  00000-0  18003-3 0  9850
2 37181 097.5434 293.7059 0120896 205.4487 315.2494 14.92221798164807
0 CZ-4B R/B
1 37181U 10051C   13290.51811816  .00001939  00000-0  17043-3 0  9869
2 37181 097.5435 294.6702 0120969 202.0800 322.6990 14.92227612164956
0 CZ-4B R/B
1 37181U 10051C   13292.10433271  .00002359  00000-0  20616-3 0  9879
2 37181 097.5436 296.1897 0120893 196.7535 203.9089 14.92230759165192
0 CZ-4B R/B
1 37181U 10051C   13293.11050211  .00001979  00000-0  17383-3 0  9885
2 37181 097.5438 297.1536 0120956 193.4268 209.0554 14.92236373165341
0 CZ-4B R/B
1 37181U 10051C   13294.11632302  .00001435  00000-0  12744-3 0  9897
2 37181 097.5438 298.1172 0121238 190.1081 212.3394 14.92242773165495
0 CZ-4B R/B
1 37181U 10051C   13295.12214201  .00001776  00000-0  15637-3 0  9907
2 37181 097.5438 299.0809 0121338 186.7589 215.6710 14.92243962165643
0 CZ-4B R/B
1 37181U 10051C   13296.12812931  .00002017  00000-0  17673-3 0  9914
2 37181 097.5438 300.0448 0121489 183.4000 219.9221 14.92246565165796
